[{"OBJECT_NAME":"LARETS","OBJECT_ID":"2003-042F","EPOCH":"2026-03-09T22:26:44.443104","MEAN_MOTION":14.6384865,"ECCENTRICITY":0.00120448,"INCLINATION":98.4017,"RA_OF_ASC_NODE":229.12,"ARG_OF_PERICENTER":351.8104,"MEAN_ANOMALY":8.2899,"EPHEMERIS_TYPE":0,"CLASSIFICATION_TYPE":"U","NORAD_CAT_ID":27944,"ELEMENT_SET_NO":999,"REV_AT_EPOCH":19884,"BSTAR":3.0475392e-5,"MEAN_MOTION_DOT":1.09e-6,"MEAN_MOTION_DDOT":0},{"OBJECT_NAME":"FENGYUN 1C DEB","OBJECT_ID":"1999-025GJ","EPOCH":"2026-03-09T11:57:19.105056","MEAN_MOTION":14.20212821,"ECCENTRICITY":0.02740646,"INCLINATION":99.1923,"RA_OF_ASC_NODE":269.6906,"ARG_OF_PERICENTER":138.4279,"MEAN_ANOMALY":223.8094,"EPHEMERIS_TYPE":0,"CLASSIFICATION_TYPE":"U","NORAD_CAT_ID":29888,"ELEMENT_SET_NO":999,"REV_AT_EPOCH":98735,"BSTAR":0.00061902764,"MEAN_MOTION_DOT":1.877e-5,"MEAN_MOTION_DDOT":0}]
